TRANSPORTER-12 OBJECT BA
1 62657U 25009BA  26068.70118713  .00011330  00000+0  42733-3 0  9991
2 62657  97.3985 151.1390 0000403 234.6623 125.4579 15.27214003 63739
STARLINK-36498          
1 67318U 26002P   26068.40238734  .00027959  00000+0  10208-2 0  9992
2 67318  42.9959 326.9974 0001034  22.2652 337.8245 15.27607877 11095
