[{"OBJECT_NAME":"TRANSPORTER-12 OBJECT BA","OBJECT_ID":"2025-009BA","EPOCH":"2026-03-09T16:49:42.568896","MEAN_MOTION":15.27214003,"ECCENTRICITY":4.03e-5,"INCLINATION":97.3985,"RA_OF_ASC_NODE":151.139,"ARG_OF_PERICENTER":234.6623,"MEAN_ANOMALY":125.4579,"EPHEMERIS_TYPE":0,"CLASSIFICATION_TYPE":"U","NORAD_CAT_ID":62657,"ELEMENT_SET_NO":999,"REV_AT_EPOCH":6373,"BSTAR":0.00042732654,"MEAN_MOTION_DOT":0.0001133,"MEAN_MOTION_DDOT":0},{"OBJECT_NAME":"STARLINK-36498","OBJECT_ID":"2026-002P","EPOCH":"2026-03-09T09:39:26.266176","MEAN_MOTION":15.27607877,"ECCENTRICITY":0.00010349,"INCLINATION":42.9959,"RA_OF_ASC_NODE":326.9974,"ARG_OF_PERICENTER":22.2652,"MEAN_ANOMALY":337.8245,"EPHEMERIS_TYPE":0,"CLASSIFICATION_TYPE":"U","NORAD_CAT_ID":67318,"ELEMENT_SET_NO":999,"REV_AT_EPOCH":1109,"BSTAR":0.0010208157,"MEAN_MOTION_DOT":0.00027959,"MEAN_MOTION_DDOT":0}]
